{"type": "FeatureCollection", "features": [{"type": "Feature", "geometry": {"type": "Polygon", "coordinates": [[[13.279394, 11.735317], [13.278409, 11.737705], [13.276845, 11.740032], [13.273655, 11.739473], [13.270744, 11.736878], [13.270542, 11.733329], [13.272498, 11.731214], [13.27587, 11.731373], [13.279643, 11.732264], [13.279394, 11.735317]]]}, "properties": {"id": "S01", "name": "Settlement 01", "type": "settlement", "lga": "Konduga (mock LGA)", "area_ha": 74.57, "centroid": [13.275013, 11.735163], "water_ha_by_pass": [74.57, 74.57, 74.57, 74.52, 29.25, 12.95, 0.0, 0.0], "flooded_days": 77, "buildings_total": 191, "buildings_in_water_by_pass": [191, 191, 191, 191, 79, 37, 0, 0], "cropland_ha": 72.34, "cropland_flooded_ha_by_pass": [72.34, 72.34, 72.34, 72.29, 29.21, 12.95, 0.0, 0.0], "aux": {"rainfall": [30.64, 16.31, 6.01, 6.01, 1.19, 1.19, 0.0, 0.0]}}}, {"type": "Feature", "geometry": {"type": "Polygon", "coordinates": [[[13.216906, 11.792187], [13.216166, 11.79541], [13.213286, 11.796867], [13.210456, 11.795522], [13.208114, 11.794438], [13.208374, 11.791454], [13.211283, 11.789808], [13.214028, 11.787961], [13.216274, 11.789807], [13.216906, 11.792187]]]}, "properties": {"id": "S02", "name": "Settlement 02", "type": "settlement", "lga": "Konduga (mock LGA)", "area_ha": 49.86, "centroid": [13.212497, 11.792262], "water_ha_by_pass": [49.86, 49.86, 49.86, 49.86, 49.86, 49.86, 49.86, 33.32], "flooded_days": 118, "buildings_total": 97, "buildings_in_water_by_pass": [97, 97, 97, 97, 97, 97, 97, 81], "cropland_ha": 2.04, "cropland_flooded_ha_by_pass": [2.04, 2.04, 2.04, 2.04, 2.04, 2.04, 2.04, 0.78], "aux": {"rainfall": [26.69, 19.05, 7.56, 7.56, 1.12, 1.12, 0.0, 0.0]}}}, {"type": "Feature", "geometry": {"type": "Polygon", "coordinates": [[[13.120771, 11.87037], [13.119461, 11.87272], [13.117228, 11.872903], [13.11487, 11.873775], [13.114732, 11.87145], [13.11398, 11.869023], [13.115781, 11.867646], [13.117702, 11.866487], [13.119142, 11.86834], [13.120771, 11.87037]]]}, "properties": {"id": "S03", "name": "Settlement 03", "type": "settlement", "lga": "Maiduguri (mock LGA)", "area_ha": 38.45, "centroid": [13.117201, 11.870257], "water_ha_by_pass": [38.45, 38.45, 38.45, 38.45, 7.9, 1.45, 0.1, 0.0], "flooded_days": 70, "buildings_total": 105, "buildings_in_water_by_pass": [105, 105, 105, 105, 19, 8, 1, 0], "cropland_ha": 38.45, "cropland_flooded_ha_by_pass": [38.45, 38.45, 38.45, 38.45, 7.9, 1.45, 0.1, 0.0], "aux": {"rainfall": [31.55, 22.78, 5.58, 5.58, 1.12, 1.12, 0.0, 0.0]}}}, {"type": "Feature", "geometry": {"type": "Polygon", "coordinates": [[[13.223527, 11.750266], [13.222684, 11.75277], [13.220946, 11.7536], [13.217562, 11.754172], [13.216662, 11.752309], [13.217442, 11.749403], [13.218805, 11.747878], [13.220799, 11.746912], [13.222666, 11.748547], [13.223527, 11.750266]]]}, "properties": {"id": "S04", "name": "Settlement 04", "type": "settlement", "lga": "Jere (mock LGA)", "area_ha": 43.18, "centroid": [13.22008, 11.750778], "water_ha_by_pass": [0.0, 0.0, 0.0, 0.0, 0.0, 0.0, 0.0, 0.0], "flooded_days": 0, "buildings_total": 108, "buildings_in_water_by_pass": [0, 0, 0, 0, 0, 0, 0, 0], "cropland_ha": 0.0, "cropland_flooded_ha_by_pass": [0.0, 0.0, 0.0, 0.0, 0.0, 0.0, 0.0, 0.0], "aux": {"rainfall": [29.64, 18.73, 6.59, 6.59, 1.15, 1.15, 0.0, 0.0]}}}, {"type": "Feature", "geometry": {"type": "Polygon", "coordinates": [[[13.077032, 11.870262], [13.076591, 11.873571], [13.072153, 11.874077], [13.069659, 11.873698], [13.067955, 11.871519], [13.066323, 11.868025], [13.069529, 11.865182], [13.072364, 11.865092], [13.075449, 11.867136], [13.077032, 11.870262]]]}, "properties": {"id": "S05", "name": "Settlement 05", "type": "settlement", "lga": "Maiduguri (mock LGA)", "area_ha": 86.75, "centroid": [13.071833, 11.869742], "water_ha_by_pass": [27.25, 13.48, 4.02, 1.6, 0.0, 0.0, 0.0, 0.0], "flooded_days": 35, "buildings_total": 220, "buildings_in_water_by_pass": [73, 27, 0, 0, 0, 0, 0, 0], "cropland_ha": 86.75, "cropland_flooded_ha_by_pass": [27.25, 13.48, 4.02, 1.6, 0.0, 0.0, 0.0, 0.0], "aux": {"rainfall": [40.46, 14.09, 6.73, 6.73, 0.89, 0.89, 0.0, 0.0]}}}, {"type": "Feature", "geometry": {"type": "Polygon", "coordinates": [[[13.115385, 11.867556], [13.11514, 11.871376], [13.11204, 11.871019], [13.109651, 11.871632], [13.108052, 11.869277], [13.107843, 11.867239], [13.10983, 11.865017], [13.112586, 11.864573], [13.114227, 11.865886], [13.115385, 11.867556]]]}, "properties": {"id": "S06", "name": "Settlement 06", "type": "settlement", "lga": "Maiduguri (mock LGA)", "area_ha": 49.95, "centroid": [13.111709, 11.868215], "water_ha_by_pass": [49.95, 49.95, 49.95, 49.95, 49.95, 46.36, 41.8, 1.02], "flooded_days": 83, "buildings_total": 134, "buildings_in_water_by_pass": [134, 134, 134, 134, 134, 130, 110, 0], "cropland_ha": 23.47, "cropland_flooded_ha_by_pass": [23.47, 23.47, 23.47, 23.47, 23.47, 19.88, 15.32, 0.0], "aux": {"rainfall": [31.55, 22.78, 5.58, 5.58, 1.12, 1.12, 0.0, 0.0]}}}, {"type": "Feature", "geometry": {"type": "Polygon", "coordinates": [[[13.179345, 11.817582], [13.178879, 11.821831], [13.175605, 11.822787], [13.171591, 11.821496], [13.168873, 11.819612], [13.167794, 11.815428], [13.171188, 11.812839], [13.175454, 11.813333], [13.177818, 11.814249], [13.179345, 11.817582]]]}, "properties": {"id": "S07", "name": "Settlement 07", "type": "settlement", "lga": "Konduga (mock LGA)", "area_ha": 86.86, "centroid": [13.173467, 11.817304], "water_ha_by_pass": [86.86, 86.86, 86.86, 86.86, 57.57, 41.18, 29.0, 0.0], "flooded_days": 83, "buildings_total": 237, "buildings_in_water_by_pass": [237, 237, 237, 237, 176, 124, 84, 0], "cropland_ha": 5.53, "cropland_flooded_ha_by_pass": [5.53, 5.53, 5.53, 5.53, 0.0, 0.0, 0.0, 0.0], "aux": {"rainfall": [31.72, 22.13, 6.24, 6.24, 0.74, 0.74, 0.0, 0.0]}}}, {"type": "Feature", "geometry": {"type": "Polygon", "coordinates": [[[13.171684, 11.820949], [13.171117, 11.824492], [13.169561, 11.826116], [13.166629, 11.824378], [13.164578, 11.822585], [13.163977, 11.819893], [13.165587, 11.817774], [13.168363, 11.817131], [13.170759, 11.819289], [13.171684, 11.820949]]]}, "properties": {"id": "S08", "name": "Settlement 08", "type": "settlement", "lga": "Jere (mock LGA)", "area_ha": 47.38, "centroid": [13.167652, 11.820918], "water_ha_by_pass": [47.38, 47.38, 47.38, 47.38, 42.58, 35.16, 28.37, 0.0], "flooded_days": 83, "buildings_total": 132, "buildings_in_water_by_pass": [132, 132, 132, 132, 132, 113, 88, 0], "cropland_ha": 0.0, "cropland_flooded_ha_by_pass": [0.0, 0.0, 0.0, 0.0, 0.0, 0.0, 0.0, 0.0], "aux": {"rainfall": [31.72, 22.13, 6.24, 6.24, 0.74, 0.74, 0.0, 0.0]}}}, {"type": "Feature", "geometry": {"type": "Polygon", "coordinates": [[[13.312837, 11.737726], [13.311163, 11.74028], [13.3094, 11.741982], [13.306891, 11.74146], [13.305603, 11.738695], [13.305602, 11.736297], [13.306907, 11.733751], [13.309274, 11.733326], [13.311944, 11.73609], [13.312837, 11.737726]]]}, "properties": {"id": "S09", "name": "Settlement 09", "type": "settlement", "lga": "Maiduguri (mock LGA)", "area_ha": 54.24, "centroid": [13.308846, 11.737648], "water_ha_by_pass": [34.93, 16.59, 4.03, 0.73, 0.0, 0.0, 0.0, 0.0], "flooded_days": 42, "buildings_total": 126, "buildings_in_water_by_pass": [78, 24, 0, 0, 0, 0, 0, 0], "cropland_ha": 13.24, "cropland_flooded_ha_by_pass": [13.24, 9.07, 2.86, 0.44, 0.0, 0.0, 0.0, 0.0], "aux": {"rainfall": [37.48, 17.49, 4.58, 4.58, 1.02, 1.02, 0.0, 0.0]}}}, {"type": "Feature", "geometry": {"type": "Polygon", "coordinates": [[[13.236476, 11.772245], [13.237276, 11.775517], [13.233368, 11.777629], [13.231212, 11.775786], [13.228773, 11.774465], [13.22862, 11.770971], [13.230508, 11.768263], [13.233622, 11.76718], [13.236833, 11.768457], [13.236476, 11.772245]]]}, "properties": {"id": "S10", "name": "Settlement 10", "type": "settlement", "lga": "Konduga (mock LGA)", "area_ha": 75.29, "centroid": [13.232863, 11.771926], "water_ha_by_pass": [75.29, 75.29, 75.29, 75.29, 75.29, 75.29, 74.51, 10.04], "flooded_days": 118, "buildings_total": 170, "buildings_in_water_by_pass": [170, 170, 170, 170, 170, 170, 170, 25], "cropland_ha": 29.98, "cropland_flooded_ha_by_pass": [29.98, 29.98, 29.98, 29.98, 29.98, 29.98, 29.44, 0.0], "aux": {"rainfall": [26.69, 19.05, 7.56, 7.56, 1.12, 1.12, 0.0, 0.0]}}}, {"type": "Feature", "geometry": {"type": "Polygon", "coordinates": [[[13.296845, 11.734607], [13.295156, 11.737607], [13.292821, 11.737987], [13.289391, 11.739093], [13.288038, 11.735036], [13.287305, 11.732563], [13.289013, 11.730968], [13.292741, 11.729708], [13.295186, 11.730817], [13.296845, 11.734607]]]}, "properties": {"id": "S11", "name": "Settlement 11", "type": "settlement", "lga": "Jere (mock LGA)", "area_ha": 75.49, "centroid": [13.292005, 11.73422], "water_ha_by_pass": [75.49, 75.49, 75.49, 75.49, 36.48, 19.16, 1.16, 0.0], "flooded_days": 77, "buildings_total": 161, "buildings_in_water_by_pass": [161, 161, 161, 161, 78, 36, 0, 0], "cropland_ha": 61.81, "cropland_flooded_ha_by_pass": [61.81, 61.81, 61.81, 61.81, 35.56, 19.16, 1.16, 0.0], "aux": {"rainfall": [30.64, 16.31, 6.01, 6.01, 1.19, 1.19, 0.0, 0.0]}}}, {"type": "Feature", "geometry": {"type": "Polygon", "coordinates": [[[13.112954, 11.879861], [13.111138, 11.883462], [13.10829, 11.88388], [13.1061, 11.884896], [13.103579, 11.88237], [13.102869, 11.878063], [13.105418, 11.875505], [13.109198, 11.875169], [13.112071, 11.876719], [13.112954, 11.879861]]]}, "properties": {"id": "S12", "name": "Settlement 12", "type": "settlement", "lga": "Konduga (mock LGA)", "area_ha": 87.91, "centroid": [13.10783, 11.879745], "water_ha_by_pass": [87.91, 87.91, 73.7, 62.55, 9.21, 1.6, 0.0, 0.0], "flooded_days": 70, "buildings_total": 189, "buildings_in_water_by_pass": [189, 189, 167, 129, 10, 0, 0, 0], "cropland_ha": 34.57, "cropland_flooded_ha_by_pass": [34.57, 34.57, 34.57, 34.57, 3.35, 0.0, 0.0, 0.0], "aux": {"rainfall": [31.55, 22.78, 5.58, 5.58, 1.12, 1.12, 0.0, 0.0]}}}, {"type": "Feature", "geometry": {"type": "Polygon", "coordinates": [[[13.2533, 11.767166], [13.252713, 11.769324], [13.250792, 11.772856], [13.246383, 11.770508], [13.245303, 11.768719], [13.244603, 11.765739], [13.246907, 11.76316], [13.249677, 11.762045], [13.254241, 11.763075], [13.2533, 11.767166]]]}, "properties": {"id": "S13", "name": "Settlement 13", "type": "settlement", "lga": "Jere (mock LGA)", "area_ha": 66.36, "centroid": [13.249788, 11.767359], "water_ha_by_pass": [66.36, 66.36, 66.36, 66.36, 66.31, 64.32, 60.83, 23.04], "flooded_days": 118, "buildings_total": 161, "buildings_in_water_by_pass": [161, 161, 161, 161, 161, 161, 160, 49], "cropland_ha": 0.15, "cropland_flooded_ha_by_pass": [0.15, 0.15, 0.15, 0.15, 0.15, 0.15, 0.15, 0.15], "aux": {"rainfall": [29.78, 16.0, 6.29, 6.29, 1.16, 1.16, 0.0, 0.0]}}}, {"type": "Feature", "geometry": {"type": "Polygon", "coordinates": [[[13.107778, 11.891609], [13.105786, 11.895103], [13.102311, 11.896081], [13.098448, 11.895878], [13.095263, 11.893134], [13.096601, 11.889136], [13.098343, 11.886754], [13.101546, 11.884137], [13.105014, 11.887438], [13.107778, 11.891609]]]}, "properties": {"id": "S14", "name": "Settlement 14", "type": "settlement", "lga": "Konduga (mock LGA)", "area_ha": 118.94, "centroid": [13.101402, 11.890947], "water_ha_by_pass": [115.64, 100.76, 46.94, 1.02, 0.0, 0.0, 0.0, 0.0], "flooded_days": 42, "buildings_total": 266, "buildings_in_water_by_pass": [266, 263, 120, 1, 0, 0, 0, 0], "cropland_ha": 0.0, "cropland_flooded_ha_by_pass": [0.0, 0.0, 0.0, 0.0, 0.0, 0.0, 0.0, 0.0], "aux": {"rainfall": [34.5, 19.9, 5.96, 5.96, 1.04, 1.04, 0.0, 0.0]}}}, {"type": "Feature", "geometry": {"type": "Polygon", "coordinates": [[[13.141115, 11.821566], [13.138318, 11.826985], [13.130351, 11.828249], [13.127297, 11.821229], [13.131683, 11.815596], [13.137636, 11.81742], [13.141115, 11.821566]]]}, "properties": {"id": "C15", "name": "Cropland block A", "type": "cropland", "lga": "Jere (mock LGA)", "area_ha": 143.95, "centroid": [13.13399, 11.822153], "water_ha_by_pass": [84.0, 42.82, 1.41, 0.0, 0.0, 0.0, 0.0, 0.0], "flooded_days": 35, "buildings_total": 3, "buildings_in_water_by_pass": [2, 1, 0, 0, 0, 0, 0, 0], "cropland_ha": 0.0, "cropland_flooded_ha_by_pass": [0.0, 0.0, 0.0, 0.0, 0.0, 0.0, 0.0, 0.0], "aux": {"rainfall": [31.96, 22.79, 7.1, 7.1, 1.07, 1.07, 0.0, 0.0]}}}, {"type": "Feature", "geometry": {"type": "Polygon", "coordinates": [[[13.072055, 11.907449], [13.069934, 11.911614], [13.065571, 11.912564], [13.061893, 11.90712], [13.065488, 11.902481], [13.070373, 11.903583], [13.072055, 11.907449]]]}, "properties": {"id": "C16", "name": "Cropland block B", "type": "cropland", "lga": "Konduga (mock LGA)", "area_ha": 84.51, "centroid": [13.067145, 11.907455], "water_ha_by_pass": [84.51, 84.51, 84.51, 83.35, 38.69, 26.91, 17.99, 0.0], "flooded_days": 83, "buildings_total": 2, "buildings_in_water_by_pass": [2, 2, 2, 2, 1, 0, 0, 0], "cropland_ha": 58.18, "cropland_flooded_ha_by_pass": [58.18, 58.18, 58.18, 57.02, 20.65, 13.96, 9.26, 0.0], "aux": {"rainfall": [41.25, 20.03, 7.74, 7.74, 1.03, 1.03, 0.0, 0.0]}}}, {"type": "Feature", "geometry": {"type": "Polygon", "coordinates": [[[13.164994, 11.824001], [13.161419, 11.829733], [13.154504, 11.830687], [13.151441, 11.824647], [13.155908, 11.819053], [13.162713, 11.816461], [13.164994, 11.824001]]]}, "properties": {"id": "C17", "name": "Cropland block C", "type": "cropland", "lga": "Jere (mock LGA)", "area_ha": 148.41, "centroid": [13.158429, 11.823829], "water_ha_by_pass": [148.41, 148.41, 148.41, 148.41, 33.66, 20.08, 11.74, 0.0], "flooded_days": 83, "buildings_total": 3, "buildings_in_water_by_pass": [3, 3, 3, 3, 1, 1, 1, 0], "cropland_ha": 0.0, "cropland_flooded_ha_by_pass": [0.0, 0.0, 0.0, 0.0, 0.0, 0.0, 0.0, 0.0], "aux": {"rainfall": [31.72, 22.13, 6.24, 6.24, 0.74, 0.74, 0.0, 0.0]}}}, {"type": "Feature", "geometry": {"type": "Polygon", "coordinates": [[[13.107524, 11.871001], [13.102722, 11.876702], [13.096191, 11.876708], [13.094118, 11.870516], [13.095602, 11.864561], [13.103508, 11.865087], [13.107524, 11.871001]]]}, "properties": {"id": "C18", "name": "Cropland block D", "type": "cropland", "lga": "Konduga (mock LGA)", "area_ha": 123.65, "centroid": [13.10022, 11.870809], "water_ha_by_pass": [123.65, 123.65, 123.65, 123.65, 116.82, 107.94, 91.41, 0.0], "flooded_days": 83, "buildings_total": 6, "buildings_in_water_by_pass": [6, 6, 6, 6, 6, 5, 5, 0], "cropland_ha": 0.0, "cropland_flooded_ha_by_pass": [0.0, 0.0, 0.0, 0.0, 0.0, 0.0, 0.0, 0.0], "aux": {"rainfall": [35.82, 18.62, 6.13, 6.13, 1.01, 1.01, 0.0, 0.0]}}}, {"type": "Feature", "geometry": {"type": "Polygon", "coordinates": [[[13.12267, 11.892063], [13.118762, 11.896547], [13.114758, 11.896365], [13.111942, 11.892514], [13.11321, 11.887741], [13.119975, 11.888794], [13.12267, 11.892063]]]}, "properties": {"id": "C19", "name": "Cropland block E", "type": "cropland", "lga": "Konduga (mock LGA)", "area_ha": 81.31, "centroid": [13.116866, 11.892148], "water_ha_by_pass": [0.0, 0.0, 0.0, 0.0, 0.0, 0.0, 0.0, 0.0], "flooded_days": 0, "buildings_total": 4, "buildings_in_water_by_pass": [0, 0, 0, 0, 0, 0, 0, 0], "cropland_ha": 0.0, "cropland_flooded_ha_by_pass": [0.0, 0.0, 0.0, 0.0, 0.0, 0.0, 0.0, 0.0], "aux": {"rainfall": [31.55, 22.78, 5.58, 5.58, 1.12, 1.12, 0.0, 0.0]}}}, {"type": "Feature", "geometry": {"type": "Polygon", "coordinates": [[[13.097353, 11.868633], [13.092013, 11.872063], [13.085488, 11.873103], [13.08284, 11.86715], [13.086216, 11.863648], [13.093174, 11.862744], [13.097353, 11.868633]]]}, "properties": {"id": "C20", "name": "Cropland block F", "type": "cropland", "lga": "Jere (mock LGA)", "area_ha": 123.36, "centroid": [13.08969, 11.867875], "water_ha_by_pass": [123.36, 123.36, 108.72, 93.06, 18.57, 10.38, 4.46, 0.0], "flooded_days": 77, "buildings_total": 6, "buildings_in_water_by_pass": [6, 6, 5, 4, 1, 1, 1, 0], "cropland_ha": 0.0, "cropland_flooded_ha_by_pass": [0.0, 0.0, 0.0, 0.0, 0.0, 0.0, 0.0, 0.0], "aux": {"rainfall": [40.46, 14.09, 6.73, 6.73, 0.89, 0.89, 0.0, 0.0]}}}, {"type": "Feature", "geometry": {"type": "Polygon", "coordinates": [[[13.186147, 11.830883], [13.184073, 11.839011], [13.17707, 11.835896], [13.172209, 11.831413], [13.176045, 11.825651], [13.185216, 11.82351], [13.186147, 11.830883]]]}, "properties": {"id": "C21", "name": "Cropland block G", "type": "cropland", "lga": "Jere (mock LGA)", "area_ha": 170.37, "centroid": [13.180311, 11.830874], "water_ha_by_pass": [170.37, 170.37, 168.82, 166.74, 68.67, 44.38, 29.0, 0.0], "flooded_days": 83, "buildings_total": 5, "buildings_in_water_by_pass": [5, 5, 5, 5, 3, 2, 2, 0], "cropland_ha": 29.87, "cropland_flooded_ha_by_pass": [29.87, 29.87, 28.32, 26.24, 0.0, 0.0, 0.0, 0.0], "aux": {"rainfall": [31.72, 22.13, 6.24, 6.24, 0.74, 0.74, 0.0, 0.0]}}}, {"type": "Feature", "geometry": {"type": "Polygon", "coordinates": [[[13.298276, 11.734621], [13.295749, 11.737731], [13.290505, 11.737616], [13.287364, 11.733687], [13.290331, 11.72905], [13.295274, 11.730257], [13.298276, 11.734621]]]}, "properties": {"id": "C22", "name": "Cropland block H", "type": "cropland", "lga": "Maiduguri (mock LGA)", "area_ha": 77.77, "centroid": [13.292763, 11.733739], "water_ha_by_pass": [77.77, 77.77, 77.77, 77.77, 29.11, 11.45, 0.0, 0.0], "flooded_days": 77, "buildings_total": 154, "buildings_in_water_by_pass": [154, 154, 154, 154, 71, 29, 0, 0], "cropland_ha": 58.75, "cropland_flooded_ha_by_pass": [58.75, 58.75, 58.75, 58.75, 28.77, 11.45, 0.0, 0.0], "aux": {"rainfall": [30.64, 16.31, 6.01, 6.01, 1.19, 1.19, 0.0, 0.0]}}}, {"type": "Feature", "geometry": {"type": "Polygon", "coordinates": [[[13.275696, 11.785564], [13.27368, 11.790647], [13.268907, 11.790112], [13.26737, 11.786682], [13.269695, 11.782261], [13.273399, 11.782815], [13.275696, 11.785564]]]}, "properties": {"id": "C23", "name": "Cropland block I", "type": "cropland", "lga": "Maiduguri (mock LGA)", "area_ha": 61.26, "centroid": [13.271513, 11.786519], "water_ha_by_pass": [0.0, 0.0, 0.0, 0.0, 0.0, 0.0, 0.0, 0.0], "flooded_days": 0, "buildings_total": 4, "buildings_in_water_by_pass": [0, 0, 0, 0, 0, 0, 0, 0], "cropland_ha": 8.34, "cropland_flooded_ha_by_pass": [0.0, 0.0, 0.0, 0.0, 0.0, 0.0, 0.0, 0.0], "aux": {"rainfall": [33.15, 12.68, 4.92, 4.92, 1.21, 1.21, 0.0, 0.0]}}}, {"type": "Feature", "geometry": {"type": "Polygon", "coordinates": [[[13.240313, 11.770291], [13.238672, 11.774182], [13.234818, 11.773175], [13.232643, 11.770322], [13.234465, 11.767181], [13.238682, 11.767349], [13.240313, 11.770291]]]}, "properties": {"id": "C24", "name": "Cropland block J", "type": "cropland", "lga": "Jere (mock LGA)", "area_ha": 43.37, "centroid": [13.236488, 11.770246], "water_ha_by_pass": [43.37, 43.37, 43.37, 43.37, 43.37, 42.98, 38.27, 0.53], "flooded_days": 83, "buildings_total": 51, "buildings_in_water_by_pass": [51, 51, 51, 51, 51, 51, 51, 1], "cropland_ha": 0.05, "cropland_flooded_ha_by_pass": [0.05, 0.05, 0.05, 0.05, 0.05, 0.05, 0.05, 0.0], "aux": {"rainfall": [26.69, 19.05, 7.56, 7.56, 1.12, 1.12, 0.0, 0.0]}}}]}