{
  "type": "FeatureCollection",
  "features": [
    {
      "type": "Feature",
      "properties": {
        "period_start": "2024-09-05",
        "period_end": "2024-09-09",
        "period_label": "5\u20139 Sep 2024",
        "composite_days": 5,
        "radius_km": 5,
        "study_area_km2": 78.5378450286073,
        "mapped_flood_km2": 2.8871131300231925,
        "mapped_flood_ha": 288.71131300231923,
        "mapped_flood_share_pct": 3.676078875058981,
        "cloud_obstructed_km2": 0.0,
        "field_validation_code": 0,
        "field_validation_status": "Not yet field validated",
        "source_sensor_date": "2024-09-09T00:00:00.000",
        "source_layer": "VIIRS_20240905_20240909_MaximumFloodExtent_NGA",
        "geometry_status": "mapped_polygon"
      },
      "geometry": {
        "type": "MultiPolygon",
        "coordinates": [
          [
            [
              [
                13.241844254000057,
                11.72241593700005
              ],
              [
                13.241844254000057,
                11.72060231829774
              ],
              [
                13.241778039993502,
                11.720771428702728
              ],
              [
                13.241581888130662,
                11.72129130496047
              ],
              [
                13.241392223905528,
                11.721813513945325
              ],
              [
                13.241209075908946,
                11.722337977031822
              ],
              [
                13.241182932621335,
                11.72241593700005
              ],
              [
                13.241844254000057,
                11.72241593700005
              ]
            ]
          ],
          [
            [
              [
                13.262076254000078,
                11.70892793700005
              ],
              [
                13.26544825500008,
                11.708927937000055
              ],
              [
                13.268820255000037,
                11.708927937000052
              ],
              [
                13.268820255000037,
                11.70555593700004
              ],
              [
                13.26544825500008,
                11.705555937000042
              ],
              [
                13.262076254000078,
                11.70555593700004
              ],
              [
                13.258704254000065,
                11.70555593700004
              ],
              [
                13.258704254000065,
                11.70892793700006
              ],
              [
                13.262076254000078,
                11.70892793700005
              ]
            ]
          ],
          [
            [
              [
                13.292424255000071,
                11.712299937000068
              ],
              [
                13.295796255000084,
                11.712299937000072
              ],
              [
                13.295796255000084,
                11.708927937000052
              ],
              [
                13.292424255000071,
                11.708927937000057
              ],
              [
                13.292424255000071,
                11.712299937000068
              ]
            ]
          ],
          [
            [
              [
                13.272192255000052,
                11.715671937000081
              ],
              [
                13.272192255000052,
                11.712299937000065
              ],
              [
                13.272192255000052,
                11.708927937000054
              ],
              [
                13.268820255000037,
                11.708927937000052
              ],
              [
                13.268820255000037,
                11.712299937000067
              ],
              [
                13.26544825500008,
                11.712299937000068
              ],
              [
                13.26544825500008,
                11.715671937000081
              ],
              [
                13.268820255000037,
                11.715671937000081
              ],
              [
                13.272192255000052,
                11.715671937000081
              ]
            ]
          ],
          [
            [
              [
                13.282308255000089,
                11.715671937000081
              ],
              [
                13.282308255000089,
                11.712299937000072
              ],
              [
                13.278936255000076,
                11.712299937000061
              ],
              [
                13.278936255000076,
                11.715671937000078
              ],
              [
                13.282308255000089,
                11.715671937000081
              ]
            ]
          ],
          [
            [
              [
                13.275564255000063,
                11.715671937000083
              ],
              [
                13.275564255000063,
                11.719043937000041
              ],
              [
                13.278936255000076,
                11.719043937000036
              ],
              [
                13.278936255000076,
                11.715671937000078
              ],
              [
                13.275564255000063,
                11.715671937000083
              ]
            ]
          ],
          [
            [
              [
                13.248588254000083,
                11.732531937000092
              ],
              [
                13.248588254000083,
                11.729159937000071
              ],
              [
                13.25196025400004,
                11.729159937000077
              ],
              [
                13.255332254000052,
                11.729159937000073
              ],
              [
                13.255332254000052,
                11.72578793700006
              ],
              [
                13.255332254000052,
                11.722415937000045
              ],
              [
                13.258704254000065,
                11.722415937000054
              ],
              [
                13.262076254000078,
                11.72241593700005
              ],
              [
                13.26544825500008,
                11.72241593700005
              ],
              [
                13.26544825500008,
                11.71904393700004
              ],
              [
                13.26544825500008,
                11.715671937000081
              ],
              [
                13.262076254000078,
                11.715671937000083
              ],
              [
                13.262076254000078,
                11.719043937000036
              ],
              [
                13.258704254000065,
                11.719043937000038
              ],
              [
                13.255332254000052,
                11.719043937000038
              ],
              [
                13.25196025400004,
                11.719043937000038
              ],
              [
                13.25196025400004,
                11.722415937000052
              ],
              [
                13.248588254000085,
                11.722415937000049
              ],
              [
                13.248588254000083,
                11.725787937000062
              ],
              [
                13.24521625400007,
                11.725787937000064
              ],
              [
                13.24521625400007,
                11.729159937000073
              ],
              [
                13.241844254000057,
                11.729159937000077
              ],
              [
                13.241844254000057,
                11.73253193700009
              ],
              [
                13.245216254000072,
                11.732531937000093
              ],
              [
                13.248588254000083,
                11.732531937000092
              ]
            ]
          ]
        ]
      }
    },
    {
      "type": "Feature",
      "properties": {
        "period_start": "2024-09-14",
        "period_end": "2024-09-18",
        "period_label": "14\u201318 Sep 2024",
        "composite_days": 5,
        "radius_km": 5,
        "study_area_km2": 78.5378450286073,
        "mapped_flood_km2": 4.62270650236744,
        "mapped_flood_ha": 462.270650236744,
        "mapped_flood_share_pct": 5.885960457259333,
        "cloud_obstructed_km2": 0.0,
        "field_validation_code": 0,
        "field_validation_status": "Not yet field validated",
        "source_sensor_date": "2024-09-18T00:00:00.000",
        "source_layer": "VIIRS_20240914_20240918_MaximumFloodExtent_NGA",
        "geometry_status": "mapped_polygon"
      },
      "geometry": {
        "type": "MultiPolygon",
        "coordinates": [
          [
            [
              [
                13.282308255000089,
                11.712299937000072
              ],
              [
                13.282308255000089,
                11.715671937000081
              ],
              [
                13.285680255000047,
                11.715671937000083
              ],
              [
                13.285680255000047,
                11.712299937000072
              ],
              [
                13.285680255000047,
                11.708927937000052
              ],
              [
                13.282308255000089,
                11.708927937000059
              ],
              [
                13.282308255000089,
                11.712299937000072
              ]
            ]
          ],
          [
            [
              [
                13.275564255000063,
                11.715671937000083
              ],
              [
                13.278936255000076,
                11.715671937000078
              ],
              [
                13.278936255000076,
                11.712299937000061
              ],
              [
                13.275564255000063,
                11.712299937000067
              ],
              [
                13.275564255000063,
                11.715671937000083
              ]
            ]
          ],
          [
            [
              [
                13.241844254000057,
                11.72241593700005
              ],
              [
                13.241844254000057,
                11.72060231829774
              ],
              [
                13.241778039993502,
                11.720771428702728
              ],
              [
                13.241581888130662,
                11.72129130496047
              ],
              [
                13.241392223905528,
                11.721813513945325
              ],
              [
                13.241209075908946,
                11.722337977031822
              ],
              [
                13.241182932621335,
                11.72241593700005
              ],
              [
                13.241844254000057,
                11.72241593700005
              ]
            ]
          ],
          [
            [
              [
                13.282308255000089,
                11.722415937000049
              ],
              [
                13.285680255000047,
                11.72241593700005
              ],
              [
                13.285680255000047,
                11.719043937000043
              ],
              [
                13.282308255000089,
                11.719043937000038
              ],
              [
                13.282308255000089,
                11.722415937000049
              ]
            ]
          ],
          [
            [
              [
                13.268820255000037,
                11.719043937000032
              ],
              [
                13.272192255000052,
                11.719043937000036
              ],
              [
                13.272192255000052,
                11.715671937000081
              ],
              [
                13.268820255000037,
                11.715671937000081
              ],
              [
                13.268820255000037,
                11.712299937000067
              ],
              [
                13.272192255000052,
                11.712299937000065
              ],
              [
                13.272192255000052,
                11.708927937000054
              ],
              [
                13.272192255000052,
                11.70555593700004
              ],
              [
                13.26544825500008,
                11.705555937000042
              ],
              [
                13.262076254000078,
                11.70555593700004
              ],
              [
                13.262076254000078,
                11.70892793700005
              ],
              [
                13.26544825500008,
                11.708927937000055
              ],
              [
                13.26544825500008,
                11.712299937000068
              ],
              [
                13.26544825500008,
                11.715671937000081
              ],
              [
                13.26544825500008,
                11.71904393700004
              ],
              [
                13.262076254000078,
                11.719043937000036
              ],
              [
                13.258704254000065,
                11.719043937000038
              ],
              [
                13.255332254000052,
                11.719043937000038
              ],
              [
                13.255332254000052,
                11.722415937000045
              ],
              [
                13.25196025400004,
                11.722415937000052
              ],
              [
                13.25196025400004,
                11.725787937000067
              ],
              [
                13.248588254000083,
                11.725787937000062
              ],
              [
                13.24521625400007,
                11.725787937000064
              ],
              [
                13.24521625400007,
                11.729159937000073
              ],
              [
                13.241844254000057,
                11.729159937000077
              ],
              [
                13.239461380619298,
                11.729159937000077
              ],
              [
                13.239432335906875,
                11.729324779744221
              ],
              [
                13.239342861082603,
                11.729872376145336
              ],
              [
                13.239260211614948,
                11.730421013231972
              ],
              [
                13.239184399988464,
                11.730970608392914
              ],
              [
                13.23911543765839,
                11.731521078872227
              ],
              [
                13.239053335048887,
                11.732072341781736
              ],
              [
                13.238998101551452,
                11.732624314113457
              ],
              [
                13.238949745523483,
                11.73317691275213
              ],
              [
                13.238908274286985,
                11.733730054487722
              ],
              [
                13.238873694127456,
                11.734283656027971
              ],
              [
                13.238846010292908,
                11.734837634010855
              ],
              [
                13.238825226993058,
                11.735391905017236
              ],
              [
                13.238812409959117,
                11.735903937000044
              ],
              [
                13.241844254000057,
                11.735903937000042
              ],
              [
                13.241844254000057,
                11.739275937000055
              ],
              [
                13.24521625400007,
                11.739275937000059
              ],
              [
                13.24521625400007,
                11.735903937000046
              ],
              [
                13.248588254000083,
                11.73590393700004
              ],
              [
                13.248588254000083,
                11.732531937000092
              ],
              [
                13.25196025400004,
                11.732531937000093
              ],
              [
                13.255332254000052,
                11.732531937000092
              ],
              [
                13.255332254000052,
                11.729159937000073
              ],
              [
                13.258704254000065,
                11.729159937000073
              ],
              [
                13.262076254000078,
                11.729159937000077
              ],
              [
                13.262076254000078,
                11.725787937000065
              ],
              [
                13.26544825500008,
                11.725787937000058
              ],
              [
                13.26544825500008,
                11.72241593700005
              ],
              [
                13.268820255000037,
                11.722415937000054
              ],
              [
                13.268820255000037,
                11.719043937000032
              ]
            ]
          ]
        ]
      }
    },
    {
      "type": "Feature",
      "properties": {
        "period_start": "2024-09-19",
        "period_end": "2024-09-23",
        "period_label": "19\u201323 Sep 2024",
        "composite_days": 5,
        "radius_km": 5,
        "study_area_km2": 78.5378450286073,
        "mapped_flood_km2": 4.388117819130186,
        "mapped_flood_ha": 438.8117819130186,
        "mapped_flood_share_pct": 5.587265371913147,
        "cloud_obstructed_km2": 0.0,
        "field_validation_code": 0,
        "field_validation_status": "Not yet field validated",
        "source_sensor_date": "2024-09-23T00:00:00.000",
        "source_layer": "VIIRS_20240919_20240923_MaximumFloodExtent_NGA",
        "geometry_status": "mapped_polygon"
      },
      "geometry": {
        "type": "MultiPolygon",
        "coordinates": [
          [
            [
              [
                13.248588254000083,
                11.715671937000078
              ],
              [
                13.25196025400004,
                11.715671937000087
              ],
              [
                13.25196025400004,
                11.712299937000065
              ],
              [
                13.248588254000083,
                11.712299937000072
              ],
              [
                13.248588254000083,
                11.715671937000078
              ]
            ]
          ],
          [
            [
              [
                13.285680255000047,
                11.712299937000072
              ],
              [
                13.282308255000089,
                11.712299937000072
              ],
              [
                13.282308255000089,
                11.715671937000081
              ],
              [
                13.285680255000047,
                11.715671937000083
              ],
              [
                13.285680255000047,
                11.712299937000072
              ]
            ]
          ],
          [
            [
              [
                13.275564255000063,
                11.712299937000067
              ],
              [
                13.275564255000063,
                11.715671937000083
              ],
              [
                13.278936255000076,
                11.715671937000078
              ],
              [
                13.278936255000076,
                11.712299937000061
              ],
              [
                13.275564255000063,
                11.712299937000067
              ]
            ]
          ],
          [
            [
              [
                13.278936255000076,
                11.719043937000036
              ],
              [
                13.278936255000076,
                11.72241593700005
              ],
              [
                13.282308255000089,
                11.722415937000049
              ],
              [
                13.282308255000089,
                11.719043937000038
              ],
              [
                13.282308255000089,
                11.715671937000081
              ],
              [
                13.278936255000076,
                11.715671937000078
              ],
              [
                13.278936255000076,
                11.719043937000036
              ]
            ]
          ],
          [
            [
              [
                13.272192255000052,
                11.712299937000065
              ],
              [
                13.272192255000052,
                11.708927937000054
              ],
              [
                13.272192255000052,
                11.70555593700004
              ],
              [
                13.268820255000037,
                11.70555593700004
              ],
              [
                13.26544825500008,
                11.705555937000042
              ],
              [
                13.262076254000078,
                11.70555593700004
              ],
              [
                13.262076254000078,
                11.70892793700005
              ],
              [
                13.26544825500008,
                11.708927937000055
              ],
              [
                13.268820255000037,
                11.708927937000052
              ],
              [
                13.268820255000037,
                11.712299937000067
              ],
              [
                13.26544825500008,
                11.712299937000068
              ],
              [
                13.26544825500008,
                11.715671937000081
              ],
              [
                13.262076254000078,
                11.715671937000083
              ],
              [
                13.262076254000078,
                11.719043937000036
              ],
              [
                13.258704254000065,
                11.719043937000038
              ],
              [
                13.25196025400004,
                11.719043937000038
              ],
              [
                13.25196025400004,
                11.722415937000052
              ],
              [
                13.248588254000085,
                11.722415937000049
              ],
              [
                13.248588254000083,
                11.725787937000062
              ],
              [
                13.24521625400007,
                11.725787937000064
              ],
              [
                13.241844254000057,
                11.725787937000062
              ],
              [
                13.241844254000057,
                11.729159937000077
              ],
              [
                13.24521625400007,
                11.729159937000073
              ],
              [
                13.245216254000072,
                11.732531937000093
              ],
              [
                13.24521625400007,
                11.735903937000046
              ],
              [
                13.248588254000083,
                11.73590393700004
              ],
              [
                13.248588254000083,
                11.732531937000092
              ],
              [
                13.25196025400004,
                11.732531937000093
              ],
              [
                13.255332254000052,
                11.732531937000092
              ],
              [
                13.255332254000052,
                11.729159937000073
              ],
              [
                13.258704254000065,
                11.729159937000073
              ],
              [
                13.258704254000065,
                11.725787937000064
              ],
              [
                13.262076254000078,
                11.725787937000065
              ],
              [
                13.26544825500008,
                11.725787937000058
              ],
              [
                13.26544825500008,
                11.72241593700005
              ],
              [
                13.26544825500008,
                11.71904393700004
              ],
              [
                13.268820255000037,
                11.719043937000032
              ],
              [
                13.268820255000037,
                11.715671937000081
              ],
              [
                13.272192255000052,
                11.715671937000081
              ],
              [
                13.272192255000052,
                11.712299937000065
              ]
            ]
          ],
          [
            [
              [
                13.299168255000042,
                11.705555937000046
              ],
              [
                13.302540255000054,
                11.70555593700004
              ],
              [
                13.302540255000054,
                11.702183937000086
              ],
              [
                13.299168255000042,
                11.70218393700008
              ],
              [
                13.299168255000042,
                11.705555937000046
              ]
            ]
          ]
        ]
      }
    },
    {
      "type": "Feature",
      "properties": {
        "period_start": "2024-09-26",
        "period_end": "2024-09-30",
        "period_label": "26\u201330 Sep 2024",
        "composite_days": 5,
        "radius_km": 5,
        "study_area_km2": 78.5378450286073,
        "mapped_flood_km2": 1.371284732097086,
        "mapped_flood_ha": 137.1284732097086,
        "mapped_flood_share_pct": 1.7460177721932626,
        "cloud_obstructed_km2": 0.0,
        "field_validation_code": 0,
        "field_validation_status": "Not yet field validated",
        "source_sensor_date": "2024-09-30T00:00:00.000",
        "source_layer": "VIIRS_20240926_20240930_MaximumFloodExtent_NGA",
        "geometry_status": "mapped_polygon"
      },
      "geometry": {
        "type": "Polygon",
        "coordinates": [
          [
            [
              13.24521625400007,
              11.725787937000064
            ],
            [
              13.241844254000057,
              11.725787937000062
            ],
            [
              13.241844254000057,
              11.729159937000077
            ],
            [
              13.24521625400007,
              11.729159937000073
            ],
            [
              13.248588254000083,
              11.729159937000071
            ],
            [
              13.25196025400004,
              11.729159937000077
            ],
            [
              13.25196025400004,
              11.725787937000067
            ],
            [
              13.255332254000052,
              11.72578793700006
            ],
            [
              13.255332254000052,
              11.722415937000045
            ],
            [
              13.258704254000065,
              11.722415937000054
            ],
            [
              13.262076254000078,
              11.72241593700005
            ],
            [
              13.262076254000078,
              11.719043937000036
            ],
            [
              13.258704254000065,
              11.719043937000038
            ],
            [
              13.255332254000052,
              11.719043937000038
            ],
            [
              13.25196025400004,
              11.719043937000038
            ],
            [
              13.248588254000083,
              11.71904393700004
            ],
            [
              13.248588254000085,
              11.722415937000049
            ],
            [
              13.24521625400007,
              11.72241593700005
            ],
            [
              13.24521625400007,
              11.725787937000064
            ]
          ]
        ]
      }
    },
    {
      "type": "Feature",
      "properties": {
        "period_start": "2024-10-27",
        "period_end": "2024-10-31",
        "period_label": "27\u201331 Oct 2024",
        "composite_days": 5,
        "radius_km": 5,
        "study_area_km2": 78.5378450286073,
        "mapped_flood_km2": 0.0,
        "mapped_flood_ha": 0.0,
        "mapped_flood_share_pct": 0.0,
        "cloud_obstructed_km2": 0.0,
        "field_validation_code": 0,
        "field_validation_status": "Not yet field validated",
        "source_sensor_date": "2024-10-31T00:00:00.000",
        "source_layer": "VIIRS_20241027_20241031_MaximumFloodExtent_NGA",
        "geometry_status": "no_mapped_polygon"
      },
      "geometry": null
    },
    {
      "type": "Feature",
      "properties": {
        "period_start": "2024-11-09",
        "period_end": "2024-11-13",
        "period_label": "9\u201313 Nov 2024",
        "composite_days": 5,
        "radius_km": 5,
        "study_area_km2": 78.5378450286073,
        "mapped_flood_km2": 0.27426691385759194,
        "mapped_flood_ha": 27.426691385759195,
        "mapped_flood_share_pct": 0.34921624569364057,
        "cloud_obstructed_km2": 0.0,
        "field_validation_code": 0,
        "field_validation_status": "Not yet field validated",
        "source_sensor_date": "2024-11-13T00:00:00.000",
        "source_layer": "VIIRS_20241109_20241113_MaximumFloodExtent_NGA",
        "geometry_status": "mapped_polygon"
      },
      "geometry": {
        "type": "MultiPolygon",
        "coordinates": [
          [
            [
              [
                13.26544825500008,
                11.705555937000042
              ],
              [
                13.262076254000078,
                11.70555593700004
              ],
              [
                13.262076254000078,
                11.70892793700005
              ],
              [
                13.26544825500008,
                11.708927937000055
              ],
              [
                13.26544825500008,
                11.705555937000042
              ]
            ]
          ],
          [
            [
              [
                13.268820255000037,
                11.708927937000052
              ],
              [
                13.268820255000037,
                11.712299937000067
              ],
              [
                13.272192255000052,
                11.712299937000065
              ],
              [
                13.272192255000052,
                11.708927937000054
              ],
              [
                13.268820255000037,
                11.708927937000052
              ]
            ]
          ]
        ]
      }
    }
  ]
}
