{
  "type": "FeatureCollection",
  "features": [
    {
      "type": "Feature",
      "properties": {
        "mapped_in_n_periods": 1,
        "total_periods": 6,
        "area_km2": 2.695529933154746,
        "area_ha": 269.5529933154746,
        "share_of_unique_footprint_pct": 40.35434948064528
      },
      "geometry": {
        "type": "MultiPolygon",
        "coordinates": [
          [
            [
              [
                13.268820255000055,
                11.705555956857534
              ],
              [
                13.272192255000052,
                11.70555593700004
              ],
              [
                13.268820255000037,
                11.70555593700004
              ],
              [
                13.268820255000055,
                11.705555956857534
              ]
            ]
          ],
          [
            [
              [
                13.262076254000078,
                11.70555593700004
              ],
              [
                13.258704254000065,
                11.70555593700004
              ],
              [
                13.258704254000065,
                11.70892793700006
              ],
              [
                13.262076254000078,
                11.70892793700005
              ],
              [
                13.262076254000078,
                11.70555593700004
              ]
            ]
          ],
          [
            [
              [
                13.268820255000037,
                11.708927937000052
              ],
              [
                13.26544825500008,
                11.708927937000055
              ],
              [
                13.26544825500008,
                11.712299937000068
              ],
              [
                13.268820255000037,
                11.712299937000067
              ],
              [
                13.268820255000037,
                11.708927937000052
              ]
            ]
          ],
          [
            [
              [
                13.248588254000083,
                11.715671937000078
              ],
              [
                13.25196025400004,
                11.715671937000087
              ],
              [
                13.25196025400004,
                11.712299937000065
              ],
              [
                13.248588254000083,
                11.712299937000072
              ],
              [
                13.248588254000083,
                11.715671937000078
              ]
            ]
          ],
          [
            [
              [
                13.26544825500008,
                11.71904393700004
              ],
              [
                13.26544825500008,
                11.72241593700005
              ],
              [
                13.268820255000037,
                11.722415937000054
              ],
              [
                13.268820255000037,
                11.719043937000032
              ],
              [
                13.26544825500008,
                11.71904393700004
              ]
            ]
          ],
          [
            [
              [
                13.25196025400004,
                11.722415937000052
              ],
              [
                13.25196025400004,
                11.719043937000038
              ],
              [
                13.248588254000083,
                11.71904393700004
              ],
              [
                13.248588254000085,
                11.722415937000049
              ],
              [
                13.25196025400004,
                11.722415937000052
              ]
            ]
          ],
          [
            [
              [
                13.248588254000083,
                11.725787937000062
              ],
              [
                13.248588254000085,
                11.722415937000049
              ],
              [
                13.24521625400007,
                11.72241593700005
              ],
              [
                13.24521625400007,
                11.725787937000064
              ],
              [
                13.248588254000083,
                11.725787937000062
              ]
            ]
          ],
          [
            [
              [
                13.258704254000065,
                11.729159937000073
              ],
              [
                13.262076254000078,
                11.729159937000077
              ],
              [
                13.262076254000078,
                11.725787937000065
              ],
              [
                13.258704254000065,
                11.725787937000064
              ],
              [
                13.258704254000065,
                11.729159937000073
              ]
            ]
          ],
          [
            [
              [
                13.239432335906875,
                11.729324779744221
              ],
              [
                13.239342861082603,
                11.729872376145336
              ],
              [
                13.239260211614948,
                11.730421013231972
              ],
              [
                13.239184399988464,
                11.730970608392914
              ],
              [
                13.23911543765839,
                11.731521078872227
              ],
              [
                13.239053335048887,
                11.732072341781736
              ],
              [
                13.238998101551452,
                11.732624314113457
              ],
              [
                13.238949745523483,
                11.73317691275213
              ],
              [
                13.238908274286985,
                11.733730054487722
              ],
              [
                13.238873694127456,
                11.734283656027971
              ],
              [
                13.238846010292908,
                11.734837634010855
              ],
              [
                13.238825226993058,
                11.735391905017236
              ],
              [
                13.238812409959117,
                11.735903937000044
              ],
              [
                13.241844254000057,
                11.735903937000042
              ],
              [
                13.241844254000057,
                11.739275937000055
              ],
              [
                13.24521625400007,
                11.739275937000059
              ],
              [
                13.24521625400007,
                11.735903937000046
              ],
              [
                13.245216254000072,
                11.732531937000093
              ],
              [
                13.241844254000057,
                11.73253193700009
              ],
              [
                13.241844254000057,
                11.729159937000077
              ],
              [
                13.239461380619298,
                11.729159937000077
              ],
              [
                13.239432335906875,
                11.729324779744221
              ]
            ]
          ],
          [
            [
              [
                13.299168255000042,
                11.705555937000046
              ],
              [
                13.302540255000054,
                11.70555593700004
              ],
              [
                13.302540255000054,
                11.702183937000086
              ],
              [
                13.299168255000042,
                11.70218393700008
              ],
              [
                13.299168255000042,
                11.705555937000046
              ]
            ]
          ],
          [
            [
              [
                13.292424255000071,
                11.712299937000068
              ],
              [
                13.295796255000084,
                11.712299937000072
              ],
              [
                13.295796255000084,
                11.708927937000052
              ],
              [
                13.292424255000071,
                11.708927937000057
              ],
              [
                13.292424255000071,
                11.712299937000068
              ]
            ]
          ],
          [
            [
              [
                13.285680255000047,
                11.712299937000072
              ],
              [
                13.285680255000047,
                11.708927937000052
              ],
              [
                13.282308255000089,
                11.708927937000059
              ],
              [
                13.282308255000089,
                11.712299937000072
              ],
              [
                13.285680255000047,
                11.712299937000072
              ]
            ]
          ],
          [
            [
              [
                13.275564255000063,
                11.715671937000083
              ],
              [
                13.275564255000063,
                11.719043937000041
              ],
              [
                13.278936255000076,
                11.719043937000036
              ],
              [
                13.278936255000076,
                11.72241593700005
              ],
              [
                13.282308255000089,
                11.722415937000049
              ],
              [
                13.285680255000047,
                11.72241593700005
              ],
              [
                13.285680255000047,
                11.719043937000043
              ],
              [
                13.282308255000089,
                11.719043937000038
              ],
              [
                13.282308255000089,
                11.715671937000081
              ],
              [
                13.282308255000089,
                11.712299937000072
              ],
              [
                13.278936255000076,
                11.712299937000061
              ],
              [
                13.278936255000076,
                11.715671937000078
              ],
              [
                13.275564255000063,
                11.715671937000083
              ]
            ]
          ],
          [
            [
              [
                13.272192255000052,
                11.715671937000081
              ],
              [
                13.268820255000037,
                11.715671937000081
              ],
              [
                13.268820255000037,
                11.719043937000032
              ],
              [
                13.272192255000052,
                11.719043937000036
              ],
              [
                13.272192255000052,
                11.715671937000081
              ]
            ]
          ]
        ]
      }
    },
    {
      "type": "Feature",
      "properties": {
        "mapped_in_n_periods": 2,
        "total_periods": 6,
        "area_km2": 2.0643121004586167,
        "area_ha": 206.43121004586166,
        "share_of_unique_footprint_pct": 30.904487801972262
      },
      "geometry": {
        "type": "MultiPolygon",
        "coordinates": [
          [
            [
              [
                13.255332254000052,
                11.719043937000038
              ],
              [
                13.25196025400004,
                11.719043937000038
              ],
              [
                13.25533225400007,
                11.719043956879382
              ],
              [
                13.255332254000052,
                11.719043937000038
              ]
            ]
          ],
          [
            [
              [
                13.241392223905528,
                11.721813513945325
              ],
              [
                13.241209075908946,
                11.722337977031822
              ],
              [
                13.241182932621335,
                11.72241593700005
              ],
              [
                13.241844254000057,
                11.72241593700005
              ],
              [
                13.241844254000057,
                11.72060231829774
              ],
              [
                13.241778039993502,
                11.720771428702728
              ],
              [
                13.241581888130662,
                11.72129130496047
              ],
              [
                13.241392223905528,
                11.721813513945325
              ]
            ]
          ],
          [
            [
              [
                13.262076254000078,
                11.725787937000065
              ],
              [
                13.26544825500008,
                11.725787937000058
              ],
              [
                13.26544825500008,
                11.72241593700005
              ],
              [
                13.262076254000078,
                11.72241593700005
              ],
              [
                13.258704254000065,
                11.722415937000054
              ],
              [
                13.255332254000052,
                11.722415937000045
              ],
              [
                13.255332254000052,
                11.72578793700006
              ],
              [
                13.255332254000052,
                11.729159937000073
              ],
              [
                13.258704254000065,
                11.729159937000073
              ],
              [
                13.258704254000065,
                11.725787937000064
              ],
              [
                13.262076254000078,
                11.725787937000065
              ]
            ]
          ],
          [
            [
              [
                13.241844254000057,
                11.73253193700009
              ],
              [
                13.245216254000072,
                11.732531937000093
              ],
              [
                13.24521625400007,
                11.729159937000073
              ],
              [
                13.24521625400007,
                11.725787937000064
              ],
              [
                13.241844254000057,
                11.725787937000062
              ],
              [
                13.241844254000057,
                11.729159937000077
              ],
              [
                13.241844254000057,
                11.73253193700009
              ]
            ]
          ],
          [
            [
              [
                13.255332254000052,
                11.729159937000073
              ],
              [
                13.25196025400004,
                11.729159937000077
              ],
              [
                13.248588254000083,
                11.729159937000071
              ],
              [
                13.248588254000083,
                11.732531937000092
              ],
              [
                13.25196025400004,
                11.732531937000093
              ],
              [
                13.255332254000052,
                11.732531937000092
              ],
              [
                13.255332254000052,
                11.729159937000073
              ]
            ]
          ],
          [
            [
              [
                13.248588254000083,
                11.732531937000092
              ],
              [
                13.245216254000072,
                11.732531937000093
              ],
              [
                13.24521625400007,
                11.735903937000046
              ],
              [
                13.248588254000083,
                11.73590393700004
              ],
              [
                13.248588254000083,
                11.732531937000092
              ]
            ]
          ],
          [
            [
              [
                13.268820255000055,
                11.705555956857534
              ],
              [
                13.268820255000037,
                11.70555593700004
              ],
              [
                13.26544825500008,
                11.705555937000042
              ],
              [
                13.268820255000055,
                11.705555956857534
              ]
            ]
          ],
          [
            [
              [
                13.268820255000055,
                11.705555956857534
              ],
              [
                13.268820255000037,
                11.708927937000052
              ],
              [
                13.272192255000052,
                11.708927937000054
              ],
              [
                13.272192255000052,
                11.70555593700004
              ],
              [
                13.268820255000055,
                11.705555956857534
              ]
            ]
          ],
          [
            [
              [
                13.282308255000089,
                11.712299937000072
              ],
              [
                13.282308255000089,
                11.715671937000081
              ],
              [
                13.285680255000047,
                11.715671937000083
              ],
              [
                13.285680255000047,
                11.712299937000072
              ],
              [
                13.282308255000089,
                11.712299937000072
              ]
            ]
          ],
          [
            [
              [
                13.278936255000076,
                11.715671937000078
              ],
              [
                13.278936255000076,
                11.712299937000061
              ],
              [
                13.275564255000063,
                11.712299937000067
              ],
              [
                13.275564255000063,
                11.715671937000083
              ],
              [
                13.278936255000076,
                11.715671937000078
              ]
            ]
          ],
          [
            [
              [
                13.272192255000052,
                11.715671937000081
              ],
              [
                13.272192255000052,
                11.712299937000065
              ],
              [
                13.268820255000037,
                11.712299937000067
              ],
              [
                13.268820255000037,
                11.715671937000081
              ],
              [
                13.272192255000052,
                11.715671937000081
              ]
            ]
          ],
          [
            [
              [
                13.26544825500008,
                11.71904393700004
              ],
              [
                13.268820255000037,
                11.719043937000032
              ],
              [
                13.268820255000037,
                11.715671937000081
              ],
              [
                13.26544825500008,
                11.715671937000081
              ],
              [
                13.262076254000078,
                11.715671937000083
              ],
              [
                13.262076254000078,
                11.719043937000036
              ],
              [
                13.26544825500008,
                11.71904393700004
              ]
            ]
          ]
        ]
      }
    },
    {
      "type": "Feature",
      "properties": {
        "mapped_in_n_periods": 3,
        "total_periods": 6,
        "area_km2": 0.9599031277006871,
        "area_ha": 95.99031277006871,
        "share_of_unique_footprint_pct": 14.37055690101818
      },
      "geometry": {
        "type": "MultiPolygon",
        "coordinates": [
          [
            [
              [
                13.26544825500008,
                11.705555937000042
              ],
              [
                13.26544825500008,
                11.708927937000055
              ],
              [
                13.268820255000037,
                11.708927937000052
              ],
              [
                13.268820255000055,
                11.705555956857534
              ],
              [
                13.26544825500008,
                11.705555937000042
              ]
            ]
          ],
          [
            [
              [
                13.268820255000037,
                11.715671937000081
              ],
              [
                13.268820255000037,
                11.712299937000067
              ],
              [
                13.26544825500008,
                11.712299937000068
              ],
              [
                13.26544825500008,
                11.715671937000081
              ],
              [
                13.268820255000037,
                11.715671937000081
              ]
            ]
          ],
          [
            [
              [
                13.258704254000065,
                11.719043937000038
              ],
              [
                13.255332254000052,
                11.719043937000038
              ],
              [
                13.25533225400007,
                11.719043956879382
              ],
              [
                13.258704254000065,
                11.719043937000038
              ]
            ]
          ],
          [
            [
              [
                13.262076254000078,
                11.719043937000036
              ],
              [
                13.262076254000078,
                11.72241593700005
              ],
              [
                13.26544825500008,
                11.72241593700005
              ],
              [
                13.26544825500008,
                11.71904393700004
              ],
              [
                13.262076254000078,
                11.719043937000036
              ]
            ]
          ],
          [
            [
              [
                13.25533225400007,
                11.719043956879382
              ],
              [
                13.25196025400004,
                11.719043937000038
              ],
              [
                13.25196025400004,
                11.722415937000052
              ],
              [
                13.255332254000052,
                11.722415937000045
              ],
              [
                13.25533225400007,
                11.719043956879382
              ]
            ]
          ],
          [
            [
              [
                13.25196025400004,
                11.725787937000067
              ],
              [
                13.25196025400004,
                11.722415937000052
              ],
              [
                13.248588254000085,
                11.722415937000049
              ],
              [
                13.248588254000083,
                11.725787937000062
              ],
              [
                13.25196025400004,
                11.725787937000067
              ]
            ]
          ],
          [
            [
              [
                13.25196025400004,
                11.725787937000067
              ],
              [
                13.25196025400004,
                11.729159937000077
              ],
              [
                13.255332254000052,
                11.729159937000073
              ],
              [
                13.255332254000052,
                11.72578793700006
              ],
              [
                13.25196025400004,
                11.725787937000067
              ]
            ]
          ],
          [
            [
              [
                13.245216254000072,
                11.732531937000093
              ],
              [
                13.248588254000083,
                11.732531937000092
              ],
              [
                13.248588254000083,
                11.729159937000071
              ],
              [
                13.24521625400007,
                11.729159937000073
              ],
              [
                13.245216254000072,
                11.732531937000093
              ]
            ]
          ]
        ]
      }
    },
    {
      "type": "Feature",
      "properties": {
        "mapped_in_n_periods": 4,
        "total_periods": 6,
        "area_km2": 0.9599063950753639,
        "area_ha": 95.99063950753639,
        "share_of_unique_footprint_pct": 14.370605816364277
      },
      "geometry": {
        "type": "MultiPolygon",
        "coordinates": [
          [
            [
              [
                13.26544825500008,
                11.705555937000042
              ],
              [
                13.262076254000078,
                11.70555593700004
              ],
              [
                13.262076254000078,
                11.70892793700005
              ],
              [
                13.26544825500008,
                11.708927937000055
              ],
              [
                13.26544825500008,
                11.705555937000042
              ]
            ]
          ],
          [
            [
              [
                13.268820255000037,
                11.708927937000052
              ],
              [
                13.268820255000037,
                11.712299937000067
              ],
              [
                13.272192255000052,
                11.712299937000065
              ],
              [
                13.272192255000052,
                11.708927937000054
              ],
              [
                13.268820255000037,
                11.708927937000052
              ]
            ]
          ],
          [
            [
              [
                13.262076254000078,
                11.72241593700005
              ],
              [
                13.262076254000078,
                11.719043937000036
              ],
              [
                13.258704254000065,
                11.719043937000038
              ],
              [
                13.25533225400007,
                11.719043956879382
              ],
              [
                13.255332254000052,
                11.722415937000045
              ],
              [
                13.258704254000065,
                11.722415937000054
              ],
              [
                13.262076254000078,
                11.72241593700005
              ]
            ]
          ],
          [
            [
              [
                13.25196025400004,
                11.725787937000067
              ],
              [
                13.255332254000052,
                11.72578793700006
              ],
              [
                13.255332254000052,
                11.722415937000045
              ],
              [
                13.25196025400004,
                11.722415937000052
              ],
              [
                13.25196025400004,
                11.725787937000067
              ]
            ]
          ],
          [
            [
              [
                13.248588254000083,
                11.725787937000062
              ],
              [
                13.24521625400007,
                11.725787937000064
              ],
              [
                13.24521625400007,
                11.729159937000073
              ],
              [
                13.248588254000083,
                11.729159937000071
              ],
              [
                13.25196025400004,
                11.729159937000077
              ],
              [
                13.25196025400004,
                11.725787937000067
              ],
              [
                13.248588254000083,
                11.725787937000062
              ]
            ]
          ]
        ]
      }
    }
  ]
}
