{"type": "FeatureCollection", "features": [{"type": "Feature", "properties": {"layer": "VIIRS_20240905_20240909_MaximumFloodExtent_NGA", "radius_km": 5.0, "buffer_km2": 78.5378450286073, "mapped_flood_km2": 2.887113130022749, "percent_buffer_mapped_flood": 3.676078875058416, "cloud_obstructed_km2": 0.0, "field_validation": "0", "sensor_date": "2024-09-09T00:00:00.000"}, "geometry": {"type": "MultiPolygon", "coordinates": [[[[13.241844254000057, 11.72241593700005], [13.241844254000057, 11.720602318297738], [13.241778039993502, 11.720771428702728], [13.241581888130662, 11.72129130496047], [13.241392223905528, 11.721813513945325], [13.241209075908946, 11.722337977031822], [13.241182932621335, 11.72241593700005], [13.241844254000057, 11.72241593700005]]], [[[13.262076254000078, 11.708927937000054], [13.26544825500008, 11.708927937000055], [13.268820255000037, 11.708927937000054], [13.268820255000037, 11.70555593700004], [13.26544825500008, 11.705555937000042], [13.262076254000078, 11.70555593700004], [13.258704254000065, 11.70555593700004], [13.258704254000065, 11.708927937000057], [13.262076254000078, 11.708927937000054]]], [[[13.292424255000071, 11.712299937000068], [13.295796255000084, 11.71229993700007], [13.295796255000084, 11.708927937000054], [13.292424255000071, 11.708927937000057], [13.292424255000071, 11.712299937000068]]], [[[13.272192255000052, 11.715671937000081], [13.272192255000052, 11.712299937000067], [13.272192255000052, 11.708927937000054], [13.268820255000037, 11.708927937000054], [13.268820255000037, 11.712299937000067], [13.26544825500008, 11.712299937000068], [13.26544825500008, 11.715671937000081], [13.268820255000037, 11.715671937000081], [13.272192255000052, 11.715671937000081]]], [[[13.282308255000089, 11.715671937000081], [13.282308255000089, 11.71229993700007], [13.278936255000076, 11.712299937000063], [13.278936255000076, 11.715671937000078], [13.282308255000089, 11.715671937000081]]], [[[13.275564255000063, 11.715671937000083], [13.275564255000063, 11.71904393700004], [13.278936255000076, 11.719043937000036], [13.278936255000076, 11.715671937000078], [13.275564255000063, 11.715671937000083]]], [[[13.248588254000083, 11.732531937000092], [13.248588254000083, 11.729159937000073], [13.25196025400004, 11.729159937000077], [13.255332254000052, 11.729159937000075], [13.255332254000052, 11.72578793700006], [13.255332254000052, 11.722415937000047], [13.258704254000065, 11.722415937000052], [13.262076254000078, 11.72241593700005], [13.26544825500008, 11.72241593700005], [13.26544825500008, 11.71904393700004], [13.26544825500008, 11.715671937000081], [13.262076254000078, 11.715671937000083], [13.262076254000078, 11.719043937000036], [13.258704254000065, 11.719043937000038], [13.255332254000052, 11.719043937000038], [13.25196025400004, 11.719043937000038], [13.25196025400004, 11.722415937000052], [13.248588254000085, 11.722415937000049], [13.248588254000083, 11.725787937000062], [13.24521625400007, 11.725787937000064], [13.24521625400007, 11.729159937000075], [13.241844254000057, 11.729159937000077], [13.241844254000057, 11.73253193700009], [13.245216254000072, 11.732531937000092], [13.248588254000083, 11.732531937000092]]]]}}, {"type": "Feature", "properties": {"layer": "VIIRS_20240914_20240918_MaximumFloodExtent_NGA", "radius_km": 5.0, "buffer_km2": 78.5378450286073, "mapped_flood_km2": 4.622706502367206, "percent_buffer_mapped_flood": 5.885960457259035, "cloud_obstructed_km2": 0.0, "field_validation": "0", "sensor_date": "2024-09-18T00:00:00.000"}, "geometry": {"type": "MultiPolygon", "coordinates": [[[[13.282308255000089, 11.71229993700007], [13.282308255000089, 11.715671937000081], [13.285680255000047, 11.715671937000083], [13.285680255000047, 11.71229993700007], [13.285680255000047, 11.708927937000054], [13.282308255000089, 11.708927937000057], [13.282308255000089, 11.71229993700007]]], [[[13.275564255000063, 11.715671937000083], [13.278936255000076, 11.715671937000078], [13.278936255000076, 11.712299937000063], [13.275564255000063, 11.712299937000067], [13.275564255000063, 11.715671937000083]]], [[[13.241844254000057, 11.72241593700005], [13.241844254000057, 11.720602318297738], [13.241778039993502, 11.720771428702728], [13.241581888130662, 11.72129130496047], [13.241392223905528, 11.721813513945325], [13.241209075908946, 11.722337977031822], [13.241182932621335, 11.72241593700005], [13.241844254000057, 11.72241593700005]]], [[[13.282308255000089, 11.722415937000049], [13.285680255000047, 11.72241593700005], [13.285680255000047, 11.719043937000041], [13.282308255000089, 11.719043937000038], [13.282308255000089, 11.722415937000049]]], [[[13.268820255000037, 11.719043937000034], [13.272192255000052, 11.719043937000036], [13.272192255000052, 11.715671937000081], [13.268820255000037, 11.715671937000081], [13.268820255000037, 11.712299937000067], [13.272192255000052, 11.712299937000067], [13.272192255000052, 11.708927937000054], [13.272192255000052, 11.70555593700004], [13.26544825500008, 11.705555937000042], [13.262076254000078, 11.70555593700004], [13.262076254000078, 11.708927937000054], [13.26544825500008, 11.708927937000055], [13.26544825500008, 11.712299937000068], [13.26544825500008, 11.715671937000081], [13.26544825500008, 11.71904393700004], [13.262076254000078, 11.719043937000036], [13.258704254000065, 11.719043937000038], [13.255332254000052, 11.719043937000038], [13.255332254000052, 11.722415937000047], [13.25196025400004, 11.722415937000052], [13.25196025400004, 11.725787937000065], [13.248588254000083, 11.725787937000062], [13.24521625400007, 11.725787937000064], [13.24521625400007, 11.729159937000075], [13.241844254000057, 11.729159937000077], [13.239461380619298, 11.729159937000077], [13.239432335906875, 11.729324779744223], [13.239342861082603, 11.729872376145336], [13.239260211614948, 11.730421013231972], [13.239184399988464, 11.730970608392914], [13.23911543765839, 11.73152107887223], [13.239053335048887, 11.732072341781736], [13.238998101551452, 11.732624314113457], [13.238949745523483, 11.73317691275213], [13.238908274286985, 11.733730054487726], [13.238873694127456, 11.734283656027971], [13.238846010292908, 11.734837634010855], [13.238825226993058, 11.735391905017236], [13.238812409959117, 11.735903937000044], [13.241844254000057, 11.735903937000044], [13.241844254000057, 11.739275937000057], [13.24521625400007, 11.739275937000059], [13.24521625400007, 11.735903937000046], [13.248588254000083, 11.735903937000044], [13.248588254000083, 11.732531937000092], [13.25196025400004, 11.732531937000092], [13.255332254000052, 11.732531937000092], [13.255332254000052, 11.729159937000075], [13.258704254000065, 11.729159937000075], [13.262076254000078, 11.729159937000077], [13.262076254000078, 11.725787937000065], [13.26544825500008, 11.72578793700006], [13.26544825500008, 11.72241593700005], [13.268820255000037, 11.722415937000052], [13.268820255000037, 11.719043937000034]]]]}}, {"type": "Feature", "properties": {"layer": "VIIRS_20240919_20240923_MaximumFloodExtent_NGA", "radius_km": 5.0, "buffer_km2": 78.5378450286073, "mapped_flood_km2": 4.3881178191300965, "percent_buffer_mapped_flood": 5.587265371913032, "cloud_obstructed_km2": 0.0, "field_validation": "0", "sensor_date": "2024-09-23T00:00:00.000"}, "geometry": {"type": "MultiPolygon", "coordinates": [[[[13.248588254000083, 11.71567193700008], [13.25196025400004, 11.715671937000083], [13.25196025400004, 11.712299937000065], [13.248588254000083, 11.71229993700007], [13.248588254000083, 11.71567193700008]]], [[[13.285680255000047, 11.71229993700007], [13.282308255000089, 11.71229993700007], [13.282308255000089, 11.715671937000081], [13.285680255000047, 11.715671937000083], [13.285680255000047, 11.71229993700007]]], [[[13.275564255000063, 11.712299937000067], [13.275564255000063, 11.715671937000083], [13.278936255000076, 11.715671937000078], [13.278936255000076, 11.712299937000063], [13.275564255000063, 11.712299937000067]]], [[[13.278936255000076, 11.719043937000036], [13.278936255000076, 11.72241593700005], [13.282308255000089, 11.722415937000049], [13.282308255000089, 11.719043937000038], [13.282308255000089, 11.715671937000081], [13.278936255000076, 11.715671937000078], [13.278936255000076, 11.719043937000036]]], [[[13.272192255000052, 11.712299937000067], [13.272192255000052, 11.708927937000054], [13.272192255000052, 11.70555593700004], [13.268820255000037, 11.70555593700004], [13.26544825500008, 11.705555937000042], [13.262076254000078, 11.70555593700004], [13.262076254000078, 11.708927937000054], [13.26544825500008, 11.708927937000055], [13.268820255000037, 11.708927937000054], [13.268820255000037, 11.712299937000067], [13.26544825500008, 11.712299937000068], [13.26544825500008, 11.715671937000081], [13.262076254000078, 11.715671937000083], [13.262076254000078, 11.719043937000036], [13.258704254000065, 11.719043937000038], [13.25196025400004, 11.719043937000038], [13.25196025400004, 11.722415937000052], [13.248588254000085, 11.722415937000049], [13.248588254000083, 11.725787937000062], [13.24521625400007, 11.725787937000064], [13.241844254000057, 11.725787937000062], [13.241844254000057, 11.729159937000077], [13.24521625400007, 11.729159937000075], [13.245216254000072, 11.732531937000092], [13.24521625400007, 11.735903937000046], [13.248588254000083, 11.735903937000044], [13.248588254000083, 11.732531937000092], [13.25196025400004, 11.732531937000092], [13.255332254000052, 11.732531937000092], [13.255332254000052, 11.729159937000075], [13.258704254000065, 11.729159937000075], [13.258704254000065, 11.725787937000064], [13.262076254000078, 11.725787937000065], [13.26544825500008, 11.72578793700006], [13.26544825500008, 11.72241593700005], [13.26544825500008, 11.71904393700004], [13.268820255000037, 11.719043937000034], [13.268820255000037, 11.715671937000081], [13.272192255000052, 11.715671937000081], [13.272192255000052, 11.712299937000067]]], [[[13.299168255000042, 11.705555937000044], [13.302540255000054, 11.70555593700004], [13.302540255000054, 11.702183937000086], [13.299168255000042, 11.702183937000083], [13.299168255000042, 11.705555937000044]]]]}}, {"type": "Feature", "properties": {"layer": "VIIRS_20240926_20240930_MaximumFloodExtent_NGA", "radius_km": 5.0, "buffer_km2": 78.5378450286073, "mapped_flood_km2": 1.3712847320971926, "percent_buffer_mapped_flood": 1.7460177721933983, "cloud_obstructed_km2": 0.0, "field_validation": "0", "sensor_date": "2024-09-30T00:00:00.000"}, "geometry": {"type": "Polygon", "coordinates": [[[13.24521625400007, 11.725787937000064], [13.241844254000057, 11.725787937000062], [13.241844254000057, 11.729159937000077], [13.24521625400007, 11.729159937000075], [13.248588254000083, 11.729159937000073], [13.25196025400004, 11.729159937000077], [13.25196025400004, 11.725787937000065], [13.255332254000052, 11.72578793700006], [13.255332254000052, 11.722415937000047], [13.258704254000065, 11.722415937000052], [13.262076254000078, 11.72241593700005], [13.262076254000078, 11.719043937000036], [13.258704254000065, 11.719043937000038], [13.255332254000052, 11.719043937000038], [13.25196025400004, 11.719043937000038], [13.248588254000083, 11.71904393700004], [13.248588254000085, 11.722415937000049], [13.24521625400007, 11.72241593700005], [13.24521625400007, 11.725787937000064]]]}}, {"type": "Feature", "properties": {"layer": "VIIRS_20241027_20241031_MaximumFloodExtent_NGA", "radius_km": 5.0, "buffer_km2": 78.5378450286073, "mapped_flood_km2": 0.0, "percent_buffer_mapped_flood": 0.0, "cloud_obstructed_km2": 0.0, "field_validation": "0", "sensor_date": "2024-10-31T00:00:00.000"}, "geometry": {"type": "Polygon", "coordinates": []}}, {"type": "Feature", "properties": {"layer": "VIIRS_20241109_20241113_MaximumFloodExtent_NGA", "radius_km": 5.0, "buffer_km2": 78.5378450286073, "mapped_flood_km2": 0.2742669138575698, "percent_buffer_mapped_flood": 0.34921624569361237, "cloud_obstructed_km2": 0.0, "field_validation": "0", "sensor_date": "2024-11-13T00:00:00.000"}, "geometry": {"type": "MultiPolygon", "coordinates": [[[[13.26544825500008, 11.705555937000042], [13.262076254000078, 11.70555593700004], [13.262076254000078, 11.708927937000054], [13.26544825500008, 11.708927937000055], [13.26544825500008, 11.705555937000042]]], [[[13.268820255000037, 11.708927937000054], [13.268820255000037, 11.712299937000067], [13.272192255000052, 11.712299937000067], [13.272192255000052, 11.708927937000054], [13.268820255000037, 11.708927937000054]]]]}}]}